OBJECT_NAME,OBJECT_ID,EPOCH,MEAN_MOTION,ECCENTRICITY,INCLINATION,RA_OF_ASC_NODE,ARG_OF_PERICENTER,MEAN_ANOMALY,EPHEMERIS_TYPE,CLASSIFICATION_TYPE,NORAD_CAT_ID,ELEMENT_SET_NO,REV_AT_EPOCH,BSTAR,MEAN_MOTION_DOT,MEAN_MOTION_DDOT
SHIJIAN-17 (SJ-17),2016-065A,2026-07-20T19:08:48.266304,0.99868641,.0002108,5.8361,72.1969,41.8203,297.8793,0,U,41838,999,3553,0,.18E-6,0
GOES 16,2016-071A,2026-07-22T05:54:38.492640,1.00271829,.00007064,0.4214,85.4334,71.6439,126.8756,0,U,41866,999,3545,0,-.88E-6,0
TIANLIAN 1-04,2016-072A,2026-07-22T05:19:01.505280,1.00272327,.00441594,0.9560,82.6760,90.8933,22.9201,0,U,41869,999,3565,0,.33E-6,0
WGS F8 (USA 272),2016-075A,2026-07-21T19:06:38.580768,1.00270945,.00000866,0.0214,52.6971,3.5542,319.7718,0,U,41879,999,3516,0,-.2E-5,0
FENGYUN 4A,2016-077A,2026-07-22T06:46:37.643232,1.00265162,.00080678,2.4095,79.8837,159.1488,286.2764,0,U,41882,999,3528,0,-.356E-5,0
ECHOSTAR 19,2016-079A,2026-07-22T05:46:38.546688,1.00272018,.00016209,0.0183,67.0321,47.1671,175.3496,0,U,41893,999,3505,0,-.135E-5,0
JCSAT-110A (JCSAT-15),2016-082A,2026-07-22T06:42:45.514080,1.00271230,.00007696,0.0188,61.0231,55.8788,33.8821,0,U,41903,999,3511,0,-.348E-5,0
STAR ONE D1,2016-082B,2026-07-22T05:47:28.313088,1.00272887,.00020498,0.0052,6.1222,116.0765,180.6777,0,U,41904,999,3512,0,-.208E-5,0
TJS-2,2017-001A,2026-07-21T20:14:24.103392,1.00272552,.00008697,0.9204,84.8702,89.0986,135.7589,0,U,41911,999,3506,0,-.5E-7,0
SBIRS GEO-4 (USA 273),2017-004A,2026-07-22T06:17:32.930880,1.00279698,.00028893,2.3096,44.1641,67.9923,304.1086,0,U,41937,999,3495,0,.129E-5,0
HISPASAT 36W-1,2017-006A,2026-07-22T02:21:38.752416,1.00272076,.00009361,0.0304,239.6831,242.5429,177.0373,0,U,41942,999,3459,0,-.242E-5,0
TELKOM 3S,2017-007A,2026-07-22T06:45:00.298080,1.00271091,.00025046,0.0184,75.9993,45.1695,38.1065,0,U,41944,999,3449,0,-.359E-5,0
INTELSAT 32E (IS-32E),2017-007B,2026-07-22T05:59:04.701408,1.00269941,.00005336,0.0129,36.4499,12.4647,297.6619,0,U,41945,999,3457,0,-.266E-5,0
ECHOSTAR 23,2017-014A,2026-07-22T06:02:38.677920,1.00271449,.00020658,0.0192,59.6822,57.9527,163.1182,0,U,42070,999,3427,0,-.54E-6,0
WGS F9 (USA 275),2017-016A,2026-07-22T02:42:37.613376,1.00273501,.00004886,0.0167,45.6757,56.6045,226.2722,0,U,42075,999,3424,0,0,0
SES-10,2017-017A,2026-07-22T05:52:20.346816,1.00269759,.00027755,0.0175,51.4268,68.9089,200.8338,0,U,42432,999,3410,0,-.269E-5,0
CHINASAT 16 (SJ-13),2017-018A,2026-07-21T15:19:05.696832,1.00272678,.00050269,0.0837,89.1322,126.8313,63.7523,0,U,42662,999,3409,0,-.35E-5,0
KOREASAT 7,2017-023A,2026-07-22T01:36:25.199712,1.00271213,.00007929,0.0178,17.0152,105.5037,317.3027,0,U,42691,999,3371,0,-.359E-5,0
SGDC,2017-023B,2026-07-21T09:02:54.691296,1.00272538,.00023854,0.0118,33.2051,87.4056,239.3991,0,U,42692,999,3375,0,-.248E-5,0
GSAT-9,2017-024A,2026-07-22T06:39:08.360640,1.00273870,.00022607,0.1024,90.5636,28.0136,18.5386,0,U,42695,999,3365,0,-.283E-5,0
INMARSAT 5-F4,2017-025A,2026-07-22T03:02:13.234848,1.00272172,.00005303,0.0189,57.7772,95.7070,248.4470,0,U,42698,999,3362,0,.78E-6,0
SES-15,2017-026A,2026-07-22T05:34:29.557920,1.00268021,.00005745,0.0293,318.1611,131.4587,164.8245,0,U,42709,999,778,0,.63E-6,0
QZS-2 (MICHIBIKI-2),2017-028A,2026-07-20T11:09:48.084768,1.00275408,.07568495,39.3796,242.6632,269.6615,95.8478,0,U,42738,999,796,0,-.138E-5,0
VIASAT-2,2017-029A,2026-07-22T05:51:27.929664,1.00270862,.00005421,0.0202,301.4037,212.6672,163.8714,0,U,42740,999,3354,0,-.262E-5,0
EUTELSAT 172B,2017-029B,2026-07-22T05:17:46.624128,1.00272812,.00002891,0.0272,124.5201,296.7191,130.1628,0,U,42741,999,3409,0,-.3E-7,0
GSAT-19,2017-031A,2026-07-22T02:59:43.475136,1.00272924,.00063541,0.0557,89.8469,3.7197,299.0964,0,U,42747,999,3349,0,.128E-5,0
ECHOSTAR 21,2017-032A,2026-07-22T04:31:36.051744,1.00272575,.00024214,1.7707,357.9724,112.4637,267.6450,0,U,42749,999,3345,0,.7E-6,0
BULGARIASAT-1,2017-038A,2026-07-22T04:37:38.560224,1.00272773,.00030141,0.0175,55.3989,72.3541,243.4994,0,U,42801,999,3319,0,.14E-6,0
HELLAS-SAT 3,2017-040A,2026-07-22T02:57:13.713696,1.00275624,.00033439,0.0395,36.6423,44.8612,301.7046,0,U,42814,999,3315,0,.155E-5,0
GSAT-17,2017-040B,2026-07-22T03:12:42.230304,1.00272228,.00020603,0.0462,256.1588,19.0185,166.3626,0,U,42815,999,3313,0,-.255E-5,0
INTELSAT 35E (IS-35E),2017-041A,2026-07-22T02:21:38.752416,1.00269627,.00021942,0.0246,59.1948,60.4805,181.0980,0,U,42818,999,3316,0,0,0
COSMOS 2520,2017-046A,2026-07-20T20:00:38.621376,1.00280558,.00007967,0.0407,107.0073,345.1513,191.6974,0,U,42907,999,3273,0,.136E-5,0
