SHIJIAN-17 (SJ-17)      
1 41838U 16065A   26201.79778086  .00000018  00000+0  00000+0 0  9992
2 41838   5.8361  72.1969 0002108  41.8203 297.8793  0.99868641 35534
GOES 16                 
1 41866U 16071A   26203.24627885 -.00000088  00000+0  00000+0 0  9990
2 41866   0.4214  85.4334 0000706  71.6439 126.8756  1.00271829 35450
TIANLIAN 1-04           
1 41869U 16072A   26203.22154520  .00000033  00000+0  00000+0 0  9992
2 41869   0.9560  82.6760 0044159  90.8933  22.9201  1.00272327 35653
WGS F8 (USA 272)        
1 41879U 16075A   26202.79627987 -.00000200  00000+0  00000+0 0  9996
2 41879   0.0214  52.6971 0000086   3.5542 319.7718  1.00270945 35160
FENGYUN 4A              
1 41882U 16077A   26203.28238013 -.00000356  00000+0  00000+0 0  9997
2 41882   2.4095  79.8837 0008067 159.1488 286.2764  1.00265162 35280
ECHOSTAR 19             
1 41893U 16079A   26203.24072392 -.00000135  00000+0  00000+0 0  9998
2 41893   0.0183  67.0321 0001620  47.1671 175.3496  1.00272018 35052
JCSAT-110A (JCSAT-15)   
1 41903U 16082A   26203.27969345 -.00000348  00000+0  00000+0 0  9996
2 41903   0.0188  61.0231 0000769  55.8788  33.8821  1.00271230 35113
STAR ONE D1             
1 41904U 16082B   26203.24129992 -.00000208  00000+0  00000+0 0  9995
2 41904   0.0052   6.1222 0002049 116.0765 180.6777  1.00272887 35123
TJS-2                   
1 41911U 17001A   26202.84333453 -.00000005  00000+0  00000+0 0  9994
2 41911   0.9204  84.8702 0000869  89.0986 135.7589  1.00272552 35061
SBIRS GEO-4 (USA 273)   
1 41937U 17004A   26203.26218670  .00000129  00000+0  00000+0 0  9991
2 41937   2.3096  44.1641 0002889  67.9923 304.1086  1.00279698 34954
HISPASAT 36W-1          
1 41942U 17006A   26203.09836519 -.00000242  00000+0  00000+0 0  9995
2 41942   0.0304 239.6831 0000936 242.5429 177.0373  1.00272076 34591
TELKOM 3S               
1 41944U 17007A   26203.28125345 -.00000359  00000+0  00000+0 0  9996
2 41944   0.0184  75.9993 0002504  45.1695  38.1065  1.00271091 34494
INTELSAT 32E (IS-32E)   
1 41945U 17007B   26203.24935997 -.00000266  00000+0  00000+0 0  9992
2 41945   0.0129  36.4499 0000533  12.4647 297.6619  1.00269941 34578
ECHOSTAR 23             
1 42070U 17014A   26203.25183655 -.00000054  00000+0  00000+0 0  9992
2 42070   0.0192  59.6822 0002065  57.9527 163.1182  1.00271449 34273
WGS F9 (USA 275)        
1 42075U 17016A   26203.11293534  .00000000  00000+0  00000+0 0  9992
2 42075   0.0167  45.6757 0000488  56.6045 226.2722  1.00273501 34249
SES-10                  
1 42432U 17017A   26203.24467994 -.00000269  00000+0  00000+0 0  9995
2 42432   0.0175  51.4268 0002775  68.9089 200.8338  1.00269759 34108
CHINASAT 16 (SJ-13)     
1 42662U 17018A   26202.63826038 -.00000350  00000+0  00000+0 0  9992
2 42662   0.0837  89.1322 0005026 126.8313  63.7523  1.00272678 34097
KOREASAT 7              
1 42691U 17023A   26203.06695833 -.00000359  00000+0  00000+0 0  9994
2 42691   0.0178  17.0152 0000792 105.5037 317.3027  1.00271213 33719
SGDC                    
1 42692U 17023B   26202.37702189 -.00000248  00000+0  00000+0 0  9998
2 42692   0.0118  33.2051 0002385  87.4056 239.3991  1.00272538 33759
GSAT-9                  
1 42695U 17024A   26203.27718010 -.00000283  00000+0  00000+0 0  9991
2 42695   0.1024  90.5636 0002260  28.0136  18.5386  1.00273870 33650
INMARSAT 5-F4           
1 42698U 17025A   26203.12654207  .00000078  00000+0  00000+0 0  9997
2 42698   0.0189  57.7772 0000530  95.7070 248.4470  1.00272172 33625
SES-15                  
1 42709U 17026A   26203.23228655  .00000063  00000+0  00000+0 0  9991
2 42709   0.0293 318.1611 0000574 131.4587 164.8245  1.00268021  7786
QZS-2 (MICHIBIKI-2)     
1 42738U 17028A   26201.46513987 -.00000138  00000+0  00000+0 0  9997
2 42738  39.3796 242.6632 0756849 269.6615  95.8478  1.00275408  7962
VIASAT-2                
1 42740U 17029A   26203.24407326 -.00000262  00000+0  00000+0 0  9996
2 42740   0.0202 301.4037 0000542 212.6672 163.8714  1.00270862 33549
EUTELSAT 172B           
1 42741U 17029B   26203.22067852 -.00000003  00000+0  00000+0 0  9994
2 42741   0.0272 124.5201 0000289 296.7191 130.1628  1.00272812 34090
GSAT-19                 
1 42747U 17031A   26203.12480874  .00000128  00000+0  00000+0 0  9992
2 42747   0.0557  89.8469 0006354   3.7197 299.0964  1.00272924 33497
ECHOSTAR 21             
1 42749U 17032A   26203.18861171  .00000070  00000+0  00000+0 0  9990
2 42749   1.7707 357.9724 0002421 112.4637 267.6450  1.00272575 33454
BULGARIASAT-1           
1 42801U 17038A   26203.19280741  .00000014  00000+0  00000+0 0  9992
2 42801   0.0175  55.3989 0003014  72.3541 243.4994  1.00272773 33199
HELLAS-SAT 3            
1 42814U 17040A   26203.12307539  .00000155  00000+0  00000+0 0  9993
2 42814   0.0395  36.6423 0003343  44.8612 301.7046  1.00275624 33150
GSAT-17                 
1 42815U 17040B   26203.13382211 -.00000255  00000+0  00000+0 0  9997
2 42815   0.0462 256.1588 0002060  19.0185 166.3626  1.00272228 33135
INTELSAT 35E (IS-35E)   
1 42818U 17041A   26203.09836519  .00000000  00000+0  00000+0 0  9998
2 42818   0.0246  59.1948 0002194  60.4805 181.0980  1.00269627 33165
COSMOS 2520             
1 42907U 17046A   26201.83378034  .00000136  00000+0  00000+0 0  9995
2 42907   0.0407 107.0073 0000796 345.1513 191.6974  1.00280558 32738
